STARLINK-32666          
1 62214U 24229Y   26068.92976645  .00036145  00000+0  13159-2 0  9993
2 62214  43.0048 269.7347 0002793 257.7791 102.2748 15.27594617 70595
TEVEL2-8                
1 63239U 25052AF  26068.66815443  .00019130  00000+0  69304-3 0  9994
2 63239  97.4055 324.2923 0008031 124.9191 235.2804 15.28392908 54807
